[{"OBJECT_NAME":"STARLINK-4683","OBJECT_ID":"2022-107N","EPOCH":"2026-03-09T21:48:36.235872","MEAN_MOTION":15.08837239,"ECCENTRICITY":0.00014538,"INCLINATION":53.2167,"RA_OF_ASC_NODE":247.6837,"ARG_OF_PERICENTER":95.4662,"MEAN_ANOMALY":264.6496,"EPHEMERIS_TYPE":0,"CLASSIFICATION_TYPE":"U","NORAD_CAT_ID":53712,"ELEMENT_SET_NO":999,"REV_AT_EPOCH":19453,"BSTAR":-5.14537e-6,"MEAN_MOTION_DOT":-3.7e-6,"MEAN_MOTION_DDOT":0},{"OBJECT_NAME":"RAPIDEYE 3","OBJECT_ID":"2008-040D","EPOCH":"2026-03-09T19:34:21.496512","MEAN_MOTION":15.06489596,"ECCENTRICITY":0.00114187,"INCLINATION":97.3959,"RA_OF_ASC_NODE":102.9968,"ARG_OF_PERICENTER":27.1842,"MEAN_ANOMALY":332.9981,"EPHEMERIS_TYPE":0,"CLASSIFICATION_TYPE":"U","NORAD_CAT_ID":33315,"ELEMENT_SET_NO":999,"REV_AT_EPOCH":95131,"BSTAR":0.00019030529,"MEAN_MOTION_DOT":2.754e-5,"MEAN_MOTION_DDOT":0}]
